{
    "links": {
        "self": "http://www.neowsapp.com/rest/v1/neo/3626081?api_key=iIulBulltgU6a56xZRHN4H3l9WmuAYTsLGpBGhQ2"
    },
    "id": "3626081",
    "neo_reference_id": "3626081",
    "name": "(2013 CM35)",
    "designation": "2013 CM35",
    "nasa_jpl_url": "http://ssd.jpl.nasa.gov/sbdb.cgi?sstr=3626081",
    "absolute_magnitude_h": 23.3,
    "estimated_diameter": {
        "kilometers": {
            "estimated_diameter_min": 0.058150704,
            "estimated_diameter_max": 0.130028927
        },
        "meters": {
            "estimated_diameter_min": 58.1507039646,
            "estimated_diameter_max": 130.0289270043
        },
        "miles": {
            "estimated_diameter_min": 0.0361331611,
            "estimated_diameter_max": 0.0807962044
        },
        "feet": {
            "estimated_diameter_min": 190.7831555951,
            "estimated_diameter_max": 426.6041048727
        }
    },
    "is_potentially_hazardous_asteroid": false,
    "close_approach_data": [
        {
            "close_approach_date": "2013-01-05",
            "close_approach_date_full": "2013-Jan-05 12:27",
            "epoch_date_close_approach": 1357388820000,
            "relative_velocity": {
                "kilometers_per_second": "14.2444278633",
                "kilometers_per_hour": "51279.9403078804",
                "miles_per_hour": "31863.360687416"
            },
            "miss_distance": {
                "astronomical": "0.0905178237",
                "lunar": "35.2114334193",
                "kilometers": "13541273.622555519",
                "miles": "8414157.2593994022"
            },
            "orbiting_body": "Earth"
        }
    ],
    "orbital_data": {
        "orbit_id": "4",
        "orbit_determination_date": "2017-04-06 08:46:55",
        "first_observation_date": "2013-02-03",
        "last_observation_date": "2013-02-08",
        "data_arc_in_days": 5,
        "observations_used": 8,
        "orbit_uncertainty": "9",
        "minimum_orbit_intersection": ".0471142",
        "jupiter_tisserand_invariant": "4.388",
        "epoch_osculation": "2456327.5",
        "eccentricity": ".5604070908238421",
        "semi_major_axis": "1.484297922403587",
        "inclination": "4.331523659782059",
        "ascending_node_longitude": "151.514583646323",
        "orbital_period": "660.5109871639154",
        "perihelion_distance": ".6524868417935199",
        "perihelion_argument": "231.6313272441375",
        "aphelion_distance": "2.316109003013654",
        "perihelion_time": "2456247.901547525737",
        "mean_anomaly": "43.38374901797571",
        "mean_motion": ".5450325687173782",
        "equinox": "J2000",
        "orbit_class": {
            "orbit_class_type": "APO",
            "orbit_class_description": "Near-Earth asteroid orbits which cross the Earth’s orbit similar to that of 1862 Apollo",
            "orbit_class_range": "a (semi-major axis) > 1.0 AU; q (perihelion) < 1.017 AU"
        }
    },
    "is_sentry_object": false
}